MACSAT (FINCH 1)        
1 58024U 23155J   26068.75584882  .00005699  00000+0  27017-3 0  9992
2 58024  97.5815 150.2689 0003733  71.2233 288.9406 15.19694714133226
IRIDE FM7               
1 66701U 25276AM  26068.75283777  .00010516  00000+0  50729-3 0  9998
2 66701  97.4286 144.0153 0003982  10.7537 349.3782 15.18866259 15329
